PROX-1                  
1 44339U 19036A   26188.47117820  .00008611  00000+0  81876-3 0  9995
2 44339  23.9961 338.7058 0005316 276.7761  83.2134 14.91133142376501
NPSAT1                  
1 44340U 19036B   26188.07945468  .00004180  00000+0  57461-3 0  9990
2 44340  23.9986  88.1813 0007532  77.2335 282.9003 14.74772535375438
FORMOSAT 7-3            
1 44343U 19036E   26187.94343676  .00003789  00000+0  20670-3 0  9997
2 44343  23.9999  42.5518 0000830 126.1855 233.8725 15.09951949386239
FORMOSAT 7-1            
1 44349U 19036L   26188.44966248  .00001907  00000+0  13752-3 0  9998
2 44349  23.9977 255.7846 0001118  67.7742 292.2877 14.96594593387699
FORMOSAT 7-4            
1 44350U 19036M   26188.47223975  .00002187  00000+0  16146-3 0  9997
2 44350  23.9993 317.7392 0001543  71.5964 288.4705 14.96590856387117
FORMOSAT 7-2            
1 44351U 19036N   26186.89442351  .00003235  00000+0  25139-3 0  9990
2 44351  23.9998  22.6902 0000890  55.3635 304.6950 14.96582619386391
FORMOSAT 7-6            
1 44353U 19036Q   26188.36085028  .00001939  00000+0  14020-3 0  9996
2 44353  23.9964 193.6160 0000948 357.2209   2.8286 14.96592910384848
FORMOSAT 7-5            
1 44358U 19036V   26188.13816422  .00002309  00000+0  17207-3 0  9998
2 44358  23.9969 133.8652 0000602  96.0147 264.0422 14.96569224385348
METEOR-M2 2             
1 44387U 19038A   26188.61602019 -.00000242  00000+0 -84836-4 0  9999
2 44387  98.9160 176.2037 0001195  17.9829 342.1391 14.24370427364201
GLOBAL-4                
1 44499U 19054E   26188.17980438  .00047212  00000+0  44452-3 0  9991
2 44499  45.0043 120.8797 0004270 139.7591 220.3623 15.66393813383490
ZY-1 02D                
1 44528U 19059A   26188.63322975  .00000371  00000+0  14532-3 0  9997
2 44528  98.6709 250.1525 0003486 328.0713  32.0261 14.35268306357275
TAURUS-1 (JINNIUZUO 1)  
1 44530U 19059C   26188.63251663  .00004643  00000+0  74253-3 0  9997
2 44530  98.6437 354.7334 0007525 241.7904 118.2542 14.72323175361659
ZHUHAI-1 03B            
1 44536U 19060C   26188.58707176  .00021507  00000+0  31811-3 0  9995
2 44536  97.5551 347.4734 0007967 234.8956 125.1552 15.55296604379490
ZHUHAI-1 03D            
1 44538U 19060E   26188.61973834  .00021164  00000+0  36548-3 0  9998
2 44538  97.5397 339.4508 0007060 219.7801 140.2933 15.50998954379241
ZHUHAI-1 03E            
1 44539U 19060F   26188.56307332  .00011915  00000+0  28384-3 0  9999
2 44539  97.5636 339.2294 0004506 312.1879  47.8984 15.41745956378905
GAOFEN-7                
1 44703U 19072A   26187.27343240  .00003770  00000+0  17040-3 0  9997
2 44703  97.2414 248.0195 0016775 334.6662  25.3750 15.21410160370544
JILIN-1 GAOFEN 2A       
1 44777U 19075A   26188.60851393  .00009377  00000+0  23803-3 0  9995
2 44777  97.4957 272.8829 0005934  22.9555 337.1954 15.39873140368021
NINGXIA-1 1             
1 44779U 19076A   26188.63253778 -.00000065  00000+0  42265-4 0  9994
2 44779  45.0060  88.4847 0011630 256.6197 103.3341 14.02041244340727
NINGXIA-1 5             
1 44783U 19076E   26188.64512679  .00000128  00000+0  16767-3 0  9994
2 44783  45.0055  87.7623 0011299 247.9600 112.0034 14.02090045340643
KL-ALPHA A              
1 44785U 19077A   26188.55948964  .00000130  00000+0  16807-3 0  9995
2 44785  88.9235 220.3370 0012986  56.0558 304.1829 13.56045419328498
CARTOSAT-3              
1 44804U 19081A   26188.57502198  .00006558  00000+0  31321-3 0  9997
2 44804  97.4292 250.1136 0013350  84.8326 275.4432 15.19295561366563
JILIN-1 GAOFEN 2B       
1 44836U 19086A   26188.60976301  .00004278  00000+0  19606-3 0  9991
2 44836  97.4871 260.4747 0012682 244.4256 115.5669 15.20943213363598
TIANQIN 1 (CAS-6)       
1 44879U 19093A   26188.56352360  .00003807  00000+0  34833-3 0  9990
2 44879  97.7795 272.2580 0010659 352.2805   7.8250 14.95536797355090
ETRSS-1                 
1 44880U 19093B   26188.56437155  .00002447  00000+0  22326-3 0  9991
2 44880  97.7812 272.7358 0010841 352.1044   8.0004 14.95980232355106
TIANYAN 01              
1 44881U 19093C   26188.57486262  .00001291  00000+0  15154-3 0  9993
2 44881  97.7521 260.3098 0014267  26.0787 334.1144 14.86556986354444
TIANYAN 02              
1 44882U 19093D   26188.59272970  .00004183  00000+0  29504-3 0  9992
2 44882  97.7940 283.5821 0012268 318.0448  41.9837 15.05479366355685
CBERS 4A                
1 44883U 19093E   26188.62306594  .00001556  00000+0  20562-3 0  9993
2 44883  98.0178 256.0806 0001006 133.2295 226.9002 14.81439492354100
WEILAI 1R               
1 44884U 19093F   26188.59069132  .00003498  00000+0  27939-3 0  9996
2 44884  97.7873 278.5120 0016494 333.6991  26.3393 15.00826676355486
