OBJECT_NAME,OBJECT_ID,EPOCH,MEAN_MOTION,ECCENTRICITY,INCLINATION,RA_OF_ASC_NODE,ARG_OF_PERICENTER,MEAN_ANOMALY,EPHEMERIS_TYPE,CLASSIFICATION_TYPE,NORAD_CAT_ID,ELEMENT_SET_NO,REV_AT_EPOCH,BSTAR,MEAN_MOTION_DOT,MEAN_MOTION_DDOT
PROX-1,2019-036A,2026-07-07T11:18:29.796480,14.91133142,.00053164,23.9961,338.7058,276.7761,83.2134,0,U,44339,999,37650,.81876472E-3,.8611E-4,0
NPSAT1,2019-036B,2026-07-07T01:54:24.884352,14.74772535,.00075329,23.9986,88.1813,77.2335,282.9003,0,U,44340,999,37543,.57461361E-3,.418E-4,0
FORMOSAT 7-3,2019-036E,2026-07-06T22:38:32.936064,15.09951949,.00008307,23.9999,42.5518,126.1855,233.8725,0,U,44343,999,38623,.20669687E-3,.3789E-4,0
FORMOSAT 7-1,2019-036L,2026-07-07T10:47:30.838272,14.96594593,.00011189,23.9977,255.7846,67.7742,292.2877,0,U,44349,999,38769,.13752306E-3,.1907E-4,0
FORMOSAT 7-4,2019-036M,2026-07-07T11:20:01.514400,14.96590856,.00015439,23.9993,317.7392,71.5964,288.4705,0,U,44350,999,38711,.16146223E-3,.2187E-4,0
FORMOSAT 7-2,2019-036N,2026-07-05T21:27:58.191264,14.96582619,.000089,23.9998,22.6902,55.3635,304.6950,0,U,44351,999,38639,.25139E-3,.3235E-4,0
FORMOSAT 7-6,2019-036Q,2026-07-07T08:39:37.464192,14.96592910,.00009484,23.9964,193.6160,357.2209,2.8286,0,U,44353,999,38484,.14020425E-3,.1939E-4,0
FORMOSAT 7-5,2019-036V,2026-07-07T03:18:57.388608,14.96569224,.00006024,23.9969,133.8652,96.0147,264.0422,0,U,44358,999,38534,.17206996E-3,.2309E-4,0
METEOR-M2 2,2019-038A,2026-07-07T14:47:04.144416,14.24370427,.00011951,98.9160,176.2037,17.9829,342.1391,0,U,44387,999,36420,-.84836326E-4,-.242E-5,0
GLOBAL-4,2019-054E,2026-07-07T04:18:55.098432,15.66393813,.00042708,45.0043,120.8797,139.7591,220.3623,0,U,44499,999,38349,.44451518E-3,.47212E-3,0
ZY-1 02D,2019-059A,2026-07-07T15:11:51.050400,14.35268306,.00034868,98.6709,250.1525,328.0713,32.0261,0,U,44528,999,35727,.14532151E-3,.371E-5,0
TAURUS-1 (JINNIUZUO 1),2019-059C,2026-07-07T15:10:49.436832,14.72323175,.00075251,98.6437,354.7334,241.7904,118.2542,0,U,44530,999,36165,.74252585E-3,.4643E-4,0
ZHUHAI-1 03B,2019-060C,2026-07-07T14:05:23.000064,15.55296604,.0007967,97.5551,347.4734,234.8956,125.1552,0,U,44536,999,37949,.31810651E-3,.21507E-3,0
ZHUHAI-1 03D,2019-060E,2026-07-07T14:52:25.392576,15.50998954,.00070606,97.5397,339.4508,219.7801,140.2933,0,U,44538,999,37924,.3654788E-3,.21164E-3,0
ZHUHAI-1 03E,2019-060F,2026-07-07T13:30:49.534848,15.41745956,.00045062,97.5636,339.2294,312.1879,47.8984,0,U,44539,999,37890,.28384335E-3,.11915E-3,0
GAOFEN-7,2019-072A,2026-07-06T06:33:44.559360,15.21410160,.00167753,97.2414,248.0195,334.6662,25.3750,0,U,44703,999,37054,.17040383E-3,.377E-4,0
JILIN-1 GAOFEN 2A,2019-075A,2026-07-07T14:36:15.603552,15.39873140,.00059342,97.4957,272.8829,22.9555,337.1954,0,U,44777,999,36802,.2380306E-3,.9377E-4,0
NINGXIA-1 1,2019-076A,2026-07-07T15:10:51.264192,14.02041244,.00116305,45.0060,88.4847,256.6197,103.3341,0,U,44779,999,34072,.4226515E-4,-.65E-6,0
NINGXIA-1 5,2019-076E,2026-07-07T15:28:58.954656,14.02090045,.00112994,45.0055,87.7623,247.9600,112.0034,0,U,44783,999,34064,.16767452E-3,.128E-5,0
KL-ALPHA A,2019-077A,2026-07-07T13:25:39.904896,13.56045419,.00129869,88.9235,220.3370,56.0558,304.1829,0,U,44785,999,32849,.16806584E-3,.13E-5,0
CARTOSAT-3,2019-081A,2026-07-07T13:48:01.899072,15.19295561,.00133506,97.4292,250.1136,84.8326,275.4432,0,U,44804,999,36656,.31320673E-3,.6558E-4,0
JILIN-1 GAOFEN 2B,2019-086A,2026-07-07T14:38:03.524064,15.20943213,.0012682,97.4871,260.4747,244.4256,115.5669,0,U,44836,999,36359,.1960563E-3,.4278E-4,0
TIANQIN 1 (CAS-6),2019-093A,2026-07-07T13:31:28.439040,14.95536797,.00106593,97.7795,272.2580,352.2805,7.8250,0,U,44879,999,35509,.34832549E-3,.3807E-4,0
ETRSS-1,2019-093B,2026-07-07T13:32:41.701920,14.95980232,.0010841,97.7812,272.7358,352.1044,8.0004,0,U,44880,999,35510,.22326308E-3,.2447E-4,0
TIANYAN 01,2019-093C,2026-07-07T13:47:48.130368,14.86556986,.00142671,97.7521,260.3098,26.0787,334.1144,0,U,44881,999,35444,.15153994E-3,.1291E-4,0
TIANYAN 02,2019-093D,2026-07-07T14:13:31.846080,15.05479366,.0012268,97.7940,283.5821,318.0448,41.9837,0,U,44882,999,35568,.29504479E-3,.4183E-4,0
CBERS 4A,2019-093E,2026-07-07T14:57:12.897216,14.81439492,.00010068,98.0178,256.0806,133.2295,226.9002,0,U,44883,999,35410,.20562379E-3,.1556E-4,0
WEILAI 1R,2019-093F,2026-07-07T14:10:35.730048,15.00826676,.00164943,97.7873,278.5120,333.6991,26.3393,0,U,44884,999,35548,.27938808E-3,.3498E-4,0
